OBJECT_NAME,OBJECT_ID,EPOCH,MEAN_MOTION,ECCENTRICITY,INCLINATION,RA_OF_ASC_NODE,ARG_OF_PERICENTER,MEAN_ANOMALY,EPHEMERIS_TYPE,CLASSIFICATION_TYPE,NORAD_CAT_ID,ELEMENT_SET_NO,REV_AT_EPOCH,BSTAR,MEAN_MOTION_DOT,MEAN_MOTION_DDOT
ONEWEB-0573,2023-004N,2026-06-12T04:23:31.099776,13.18686488,.00020362,87.9159,336.4652,117.6444,242.4895,0,U,55152,999,16903,.27041065E-4,.24E-6,0
ONEWEB-0588,2023-004P,2026-06-12T20:37:09.715008,13.18685229,.0002296,87.9157,336.3310,98.0996,262.0397,0,U,55153,999,16912,-.15826E-4,.7E-7,0
ONEWEB-0598,2023-004Q,2026-06-12T21:18:11.992320,13.11419298,.0001516,87.8888,21.9249,108.3399,251.7894,0,U,55154,999,16533,.59606E-3,.224E-5,0
ONEWEB-0599,2023-004R,2026-06-12T20:21:43.348896,13.17648056,.0001608,87.9135,6.7275,87.1156,273.0159,0,U,55155,999,16691,.48867E-4,.32E-6,0
ONEWEB-0614,2023-004S,2026-06-12T21:10:51.640032,13.11420168,.0002011,87.8891,21.9347,82.3152,277.8204,0,U,55156,999,16527,-.12865E-4,.8E-7,0
ONEWEB-0616,2023-004T,2026-06-12T06:47:41.646624,13.17648301,.00010946,87.9137,6.8435,66.8042,293.3205,0,U,55157,999,16705,-.12110476E-3,-.34E-6,0
ONEWEB-0617,2023-004U,2026-06-12T20:53:46.614624,13.11418531,.0002244,87.8894,21.9279,86.2998,273.8387,0,U,55158,999,16529,-.11931E-2,-.41E-5,0
ONEWEB-0618,2023-004V,2026-06-12T07:07:45.431904,15.13107704,.00102705,86.9097,179.6196,322.7438,37.3088,0,U,55159,999,18152,.206416E-3,.369E-4,0
ONEWEB-0619,2023-004W,2026-06-12T20:19:18.094080,13.17648517,.0002015,87.9145,6.7117,75.4923,284.6432,0,U,55160,999,16702,.1957E-3,.89E-6,0
ONEWEB-0620,2023-004X,2026-06-12T20:46:25.898592,13.11417977,.0001844,87.8887,21.9375,93.7120,266.4219,0,U,55161,999,16526,-.17869E-2,-.621E-5,0
ONEWEB-0621,2023-004Y,2026-06-12T03:06:51.139584,13.11418912,.00020221,87.8898,22.0724,81.4116,278.7241,0,U,55162,999,16514,.15763792E-2,.571E-5,0
ONEWEB-0622,2023-004Z,2026-06-12T03:14:11.128992,13.11417720,.00025209,87.8900,22.0738,91.5061,268.6356,0,U,55163,999,16513,.16660501E-2,.603E-5,0
ONEWEB-0623,2023-004AA,2026-06-12T20:12:00.120384,13.17649044,.0002585,87.9131,6.7435,80.0877,280.0546,0,U,55164,999,16701,.13227E-3,.64E-6,0
ONEWEB-0624,2023-004AB,2026-06-12T00:18:15.274656,13.12928453,.00018987,87.8944,351.6153,87.9181,272.2165,0,U,55165,999,16739,-.86535947E-3,-.301E-5,0
ONEWEB-0625,2023-004AC,2026-06-12T19:57:25.989120,13.17648364,.0001744,87.9134,6.7411,83.9182,276.2148,0,U,55166,999,16700,-.50458E-4,-.7E-7,0
ONEWEB-0626,2023-004AD,2026-06-12T19:42:51.457824,13.17649217,.0001796,87.9135,6.7426,101.1885,258.9448,0,U,55167,999,16700,-.2723E-4,.2E-7,0
ONEWEB-0627,2023-004AE,2026-06-12T19:25:49.655136,13.17647989,.0002328,87.9136,6.7454,82.0613,278.0783,0,U,55168,999,16700,.41148E-4,.29E-6,0
ONEWEB-0628,2023-004AF,2026-06-12T05:18:05.960448,13.12442932,.00024181,87.8946,351.6407,80.1276,280.0125,0,U,55169,999,16738,.23210587E-3,.96E-6,0
ONEWEB-0629,2023-004AG,2026-06-12T06:05:08.741760,13.17649052,.00019454,87.9133,6.8520,78.1962,281.9388,0,U,55170,999,16693,-.52731529E-3,-.192E-5,0
ONEWEB-0631,2023-004AH,2026-06-12T20:27:26.890848,13.18685320,.0002166,87.9168,336.2981,103.9094,256.2279,0,U,55171,999,16910,.13709E-3,.67E-6,0
ONEWEB-0709,2023-004AJ,2026-06-12T20:31:47.880192,13.11414820,.0001587,87.8886,21.9416,114.1827,245.9467,0,U,55172,999,16530,-.11264E-2,-.386E-5,0
ONEWEB-0710,2023-004AK,2026-06-12T19:11:15.287136,13.17649514,.0002017,87.9135,6.7386,87.6461,272.4901,0,U,55173,999,16700,.18198E-3,.84E-6,0
ONEWEB-0711,2023-004AL,2026-06-12T03:21:31.273920,13.11417735,.00025581,87.8892,22.0713,84.7440,275.3980,0,U,55174,999,16517,.14761875E-2,.536E-5,0
ONEWEB-0713,2023-004AM,2026-06-12T20:17:09.989664,13.11413831,.0002203,87.8891,21.9325,85.0990,275.0390,0,U,55175,999,16525,.49896E-4,.3E-6,0
ONEWEB-0715,2023-004AN,2026-06-12T20:09:50.459904,13.11415724,.0001929,87.8890,21.9344,106.6896,253.4443,0,U,55176,999,16529,.53928E-3,.204E-5,0
ONEWEB-0716,2023-004AP,2026-06-12T06:16:05.903616,13.17649546,.00016366,87.9138,6.8485,82.8500,277.2818,0,U,55177,999,16693,.10621356E-3,.54E-6,0
ONEWEB-0717,2023-004AQ,2026-06-12T20:26:35.045664,13.17647568,.0002387,87.9146,6.7183,91.3432,268.7973,0,U,55178,999,16706,-.13922E-4,.7E-7,0
ONEWEB-0719,2023-004AR,2026-06-12T20:41:10.288896,13.17648762,.0001777,87.9144,6.6966,80.8015,279.3318,0,U,55179,999,16701,.19812E-3,.9E-6,0
ONEWEB-0530,2023-029A,2026-06-12T20:20:28.694976,13.20771452,.0002344,87.9181,275.3342,93.2599,266.8803,0,U,55796,999,16057,-.15807E-3,-.51E-6,0
ONEWEB-0534,2023-029B,2026-06-12T20:03:29.979360,13.20771606,.0001843,87.9181,275.3370,99.4163,260.7179,0,U,55797,999,16057,-.76007E-4,-.18E-6,0
