ONEWEB-0573             
1 55152U 23004N   26163.18299884  .00000024  00000+0  27041-4 0  9997
2 55152  87.9159 336.4652 0002036 117.6444 242.4895 13.18686488169032
ONEWEB-0588             
1 55153U 23004P   26163.85914022  .00000007  00000+0 -15826-4 0  9990
2 55153  87.9157 336.3310 0002296  98.0996 262.0397 13.18685229169120
ONEWEB-0598             
1 55154U 23004Q   26163.88763880  .00000224  00000+0  59606-3 0  9991
2 55154  87.8888  21.9249 0001516 108.3399 251.7894 13.11419298165335
ONEWEB-0599             
1 55155U 23004R   26163.84841839  .00000032  00000+0  48867-4 0  9994
2 55155  87.9135   6.7275 0001608  87.1156 273.0159 13.17648056166917
ONEWEB-0614             
1 55156U 23004S   26163.88254213  .00000008  00000+0 -12865-4 0  9996
2 55156  87.8891  21.9347 0002011  82.3152 277.8204 13.11420168165274
ONEWEB-0616             
1 55157U 23004T   26163.28312091 -.00000034  00000+0 -12110-3 0  9992
2 55157  87.9137   6.8435 0001094  66.8042 293.3205 13.17648301167053
ONEWEB-0617             
1 55158U 23004U   26163.87067841 -.00000410  00000+0 -11931-2 0  9995
2 55158  87.8894  21.9279 0002244  86.2998 273.8387 13.11418531165293
ONEWEB-0618             
1 55159U 23004V   26163.29705361  .00003690  00000+0  20642-3 0  9999
2 55159  86.9097 179.6196 0010270 322.7438  37.3088 15.13107704181529
ONEWEB-0619             
1 55160U 23004W   26163.84673720  .00000089  00000+0  19570-3 0  9992
2 55160  87.9145   6.7117 0002015  75.4923 284.6432 13.17648517167021
ONEWEB-0620             
1 55161U 23004X   26163.86557753 -.00000621  00000+0 -17869-2 0  9994
2 55161  87.8887  21.9375 0001844  93.7120 266.4219 13.11417977165263
ONEWEB-0621             
1 55162U 23004Y   26163.12975856  .00000571  00000+0  15764-2 0  9996
2 55162  87.8898  22.0724 0002022  81.4116 278.7241 13.11418912165142
ONEWEB-0622             
1 55163U 23004Z   26163.13485103  .00000603  00000+0  16661-2 0  9992
2 55163  87.8900  22.0738 0002520  91.5061 268.6356 13.11417720165136
ONEWEB-0623             
1 55164U 23004AA  26163.84166806  .00000064  00000+0  13227-3 0  9994
2 55164  87.9131   6.7435 0002585  80.0877 280.0546 13.17649044167016
ONEWEB-0624             
1 55165U 23004AB  26163.01267679 -.00000301  00000+0 -86536-3 0  9993
2 55165  87.8944 351.6153 0001898  87.9181 272.2165 13.12928453167397
ONEWEB-0625             
1 55166U 23004AC  26163.83155080 -.00000007  00000+0 -50458-4 0  9994
2 55166  87.9134   6.7411 0001744  83.9182 276.2148 13.17648364167000
ONEWEB-0626             
1 55167U 23004AD  26163.82142891  .00000002  00000+0 -27230-4 0  9996
2 55167  87.9135   6.7426 0001796 101.1885 258.9448 13.17649217167006
ONEWEB-0627             
1 55168U 23004AE  26163.80960249  .00000029  00000+0  41148-4 0  9992
2 55168  87.9136   6.7454 0002328  82.0613 278.0783 13.17647989167006
ONEWEB-0628             
1 55169U 23004AF  26163.22090232  .00000096  00000+0  23211-3 0  9999
2 55169  87.8946 351.6407 0002418  80.1276 280.0125 13.12442932167389
ONEWEB-0629             
1 55170U 23004AG  26163.25357340 -.00000192  00000+0 -52732-3 0  9999
2 55170  87.9133   6.8520 0001945  78.1962 281.9388 13.17649052166936
ONEWEB-0631             
1 55171U 23004AH  26163.85239457  .00000067  00000+0  13709-3 0  9994
2 55171  87.9168 336.2981 0002166 103.9094 256.2279 13.18685320169100
ONEWEB-0709             
1 55172U 23004AJ  26163.85541528 -.00000386  00000+0 -11264-2 0  9999
2 55172  87.8886  21.9416 0001587 114.1827 245.9467 13.11414820165302
ONEWEB-0710             
1 55173U 23004AK  26163.79948249  .00000084  00000+0  18198-3 0  9991
2 55173  87.9135   6.7386 0002017  87.6461 272.4901 13.17649514167008
ONEWEB-0711             
1 55174U 23004AL  26163.13994530  .00000536  00000+0  14762-2 0  9998
2 55174  87.8892  22.0713 0002558  84.7440 275.3980 13.11417735165175
ONEWEB-0713             
1 55175U 23004AM  26163.84525451  .00000030  00000+0  49896-4 0  9996
2 55175  87.8891  21.9325 0002203  85.0990 275.0390 13.11413831165257
ONEWEB-0715             
1 55176U 23004AN  26163.84016736  .00000204  00000+0  53928-3 0  9991
2 55176  87.8890  21.9344 0001929 106.6896 253.4443 13.11415724165293
ONEWEB-0716             
1 55177U 23004AP  26163.26117944  .00000054  00000+0  10621-3 0  9997
2 55177  87.9138   6.8485 0001636  82.8500 277.2818 13.17649546166939
ONEWEB-0717             
1 55178U 23004AQ  26163.85179451  .00000007  00000+0 -13922-4 0  9991
2 55178  87.9146   6.7183 0002387  91.3432 268.7973 13.17647568167060
ONEWEB-0719             
1 55179U 23004AR  26163.86192464  .00000090  00000+0  19812-3 0  9996
2 55179  87.9144   6.6966 0001777  80.8015 279.3318 13.17648762167012
ONEWEB-0530             
1 55796U 23029A   26163.84755434 -.00000051  00000+0 -15807-3 0  9997
2 55796  87.9181 275.3342 0002344  93.2599 266.8803 13.20771452160578
ONEWEB-0534             
1 55797U 23029B   26163.83576365 -.00000018  00000+0 -76007-4 0  9994
2 55797  87.9181 275.3370 0001843  99.4163 260.7179 13.20771606160578
